{
  "type": "FeatureCollection",
  "features": [
    {
      "type": "Feature",
      "properties": {
        "norad_id": 37017,
        "name": "FENGYUN 1C DEB",
        "group": "fengyun-1c-debris",
        "lat": 0.10614827262728851,
        "lon": -68.55087369616436,
        "alt_km": 558.0418117020827,
        "timestamp": "2025-12-12T22:42:12.834643+00:00",
        "meta_object_name": "FENGYUN 1C DEB",
        "meta_object_id": "1999-025ECZ",
        "meta_epoch": "2025-12-11T01:41:56.915232",
        "meta_mean_motion": 14.40628528,
        "meta_eccentricity": 0.02827811,
        "meta_inclination": 98.7918,
        "meta_ra_of_asc_node": 289.5362,
        "meta_arg_of_pericenter": 10.2027,
        "meta_mean_anomaly": 350.4737,
        "meta_ephemeris_type": 0,
        "meta_classification_type": "U",
        "meta_norad_cat_id": 37017,
        "meta_element_set_no": 999,
        "meta_rev_at_epoch": 61137,
        "meta_bstar": 0.0027415448,
        "meta_mean_motion_dot": 0.00014048,
        "meta_mean_motion_ddot": 0,
        "tle_line1": "1 37017U 99025ECZ 25345.07079763  .00014048  00000+0  27415-2 0  9998",
        "tle_line2": "2 37017  98.7918 289.5362 0282781  10.2027 350.4737 14.40628528611374"
      },
      "geometry": {
        "type": "Point",
        "coordinates": [
          -68.55087369616436,
          0.10614827262728851
        ]
      }
    },
    {
      "type": "Feature",
      "properties": {
        "norad_id": 37021,
        "name": "FENGYUN 1C DEB",
        "group": "fengyun-1c-debris",
        "lat": 79.12001608414198,
        "lon": -126.26280960311848,
        "alt_km": 889.5419470995757,
        "timestamp": "2025-12-12T22:42:12.834653+00:00",
        "meta_object_name": "FENGYUN 1C DEB",
        "meta_object_id": "1999-025EDD",
        "meta_epoch": "2025-12-04T08:05:12.810048",
        "meta_mean_motion": 14.32214059,
        "meta_eccentricity": 0.0175512,
        "meta_inclination": 98.3859,
        "meta_ra_of_asc_node": 355.2821,
        "meta_arg_of_pericenter": 276.8323,
        "meta_mean_anomaly": 97.3533,
        "meta_ephemeris_type": 0,
        "meta_classification_type": "U",
        "meta_norad_cat_id": 37021,
        "meta_element_set_no": 999,
        "meta_rev_at_epoch": 69934,
        "meta_bstar": 0.0015095,
        "meta_mean_motion_dot": 4.777e-05,
        "meta_mean_motion_ddot": 0,
        "tle_line1": "1 37021U 99025EDD 25338.33695382  .00004777  00000+0  15095-2 0  9994",
        "tle_line2": "2 37021  98.3859 355.2821 0175512 276.8323  97.3533 14.32214059699347"
      },
      "geometry": {
        "type": "Point",
        "coordinates": [
          -126.26280960311848,
          79.12001608414198
        ]
      }
    },
    {
      "type": "Feature",
      "properties": {
        "norad_id": 37028,
        "name": "FENGYUN 1C DEB",
        "group": "fengyun-1c-debris",
        "lat": 77.30913291824362,
        "lon": 121.00369777365239,
        "alt_km": 785.0472866804184,
        "timestamp": "2025-12-12T22:42:12.834663+00:00",
        "meta_object_name": "FENGYUN 1C DEB",
        "meta_object_id": "1999-025EDL",
        "meta_epoch": "2025-12-09T23:21:12.184416",
        "meta_mean_motion": 14.22702576,
        "meta_eccentricity": 0.00330412,
        "meta_inclination": 99.2453,
        "meta_ra_of_asc_node": 251.5588,
        "meta_arg_of_pericenter": 106.1234,
        "meta_mean_anomaly": 254.3583,
        "meta_ephemeris_type": 0,
        "meta_classification_type": "U",
        "meta_norad_cat_id": 37028,
        "meta_element_set_no": 999,
        "meta_rev_at_epoch": 60436,
        "meta_bstar": 0.0023776315,
        "meta_mean_motion_dot": 5.31e-05,
        "meta_mean_motion_ddot": 0,
        "tle_line1": "1 37028U 99025EDL 25343.97305769  .00005310  00000+0  23776-2 0  9993",
        "tle_line2": "2 37028  99.2453 251.5588 0033041 106.1234 254.3583 14.22702576604361"
      },
      "geometry": {
        "type": "Point",
        "coordinates": [
          121.00369777365239,
          77.30913291824362
        ]
      }
    },
    {
      "type": "Feature",
      "properties": {
        "norad_id": 37036,
        "name": "FENGYUN 1C DEB",
        "group": "fengyun-1c-debris",
        "lat": -25.561269880975082,
        "lon": 155.46035272597302,
        "alt_km": 965.8416529281794,
        "timestamp": "2025-12-12T22:42:12.834673+00:00",
        "meta_object_name": "FENGYUN 1C DEB",
        "meta_object_id": "1999-025EDU",
        "meta_epoch": "2025-12-10T16:41:53.236320",
        "meta_mean_motion": 14.03563948,
        "meta_eccentricity": 0.01243108,
        "meta_inclination": 98.7137,
        "meta_ra_of_asc_node": 337.5102,
        "meta_arg_of_pericenter": 60.8898,
        "meta_mean_anomaly": 300.4649,
        "meta_ephemeris_type": 0,
        "meta_classification_type": "U",
        "meta_norad_cat_id": 37036,
        "meta_element_set_no": 999,
        "meta_rev_at_epoch": 63719,
        "meta_bstar": 0.00069616367,
        "meta_mean_motion_dot": 1.128e-05,
        "meta_mean_motion_ddot": 0,
        "tle_line1": "1 37036U 99025EDU 25344.69575505  .00001128  00000+0  69616-3 0  9996",
        "tle_line2": "2 37036  98.7137 337.5102 0124310  60.8898 300.4649 14.03563948637192"
      },
      "geometry": {
        "type": "Point",
        "coordinates": [
          155.46035272597302,
          -25.561269880975082
        ]
      }
    },
    {
      "type": "Feature",
      "properties": {
        "norad_id": 37044,
        "name": "FENGYUN 1C DEB",
        "group": "fengyun-1c-debris",
        "lat": -33.39928830166294,
        "lon": 99.00125922102971,
        "alt_km": 1364.9792648701514,
        "timestamp": "2025-12-12T22:42:12.834683+00:00",
        "meta_object_name": "FENGYUN 1C DEB",
        "meta_object_id": "1999-025EEC",
        "meta_epoch": "2025-12-09T12:32:45.701088",
        "meta_mean_motion": 13.70710675,
        "meta_eccentricity": 0.0509297,
        "meta_inclination": 98.9607,
        "meta_ra_of_asc_node": 89.8221,
        "meta_arg_of_pericenter": 169.8577,
        "meta_mean_anomaly": 191.3334,
        "meta_ephemeris_type": 0,
        "meta_classification_type": "U",
        "meta_norad_cat_id": 37044,
        "meta_element_set_no": 999,
        "meta_rev_at_epoch": 83814,
        "meta_bstar": 0.0046626,
        "meta_mean_motion_dot": 0.00010455,
        "meta_mean_motion_ddot": 0,
        "tle_line1": "1 37044U 99025EEC 25343.52275117  .00010455  00000+0  46626-2 0  9990",
        "tle_line2": "2 37044  98.9607  89.8221 0509297 169.8577 191.3334 13.70710675838149"
      },
      "geometry": {
        "type": "Point",
        "coordinates": [
          99.00125922102971,
          -33.39928830166294
        ]
      }
    },
    {
      "type": "Feature",
      "properties": {
        "norad_id": 37046,
        "name": "FENGYUN 1C DEB",
        "group": "fengyun-1c-debris",
        "lat": 43.53971144071809,
        "lon": -7.018170807048202,
        "alt_km": 809.8742295037737,
        "timestamp": "2025-12-12T22:42:12.834693+00:00",
        "meta_object_name": "FENGYUN 1C DEB",
        "meta_object_id": "1999-025EEE",
        "meta_epoch": "2025-12-09T18:39:23.306112",
        "meta_mean_motion": 14.24826454,
        "meta_eccentricity": 0.00492007,
        "meta_inclination": 98.5439,
        "meta_ra_of_asc_node": 358.1114,
        "meta_arg_of_pericenter": 315.8191,
        "meta_mean_anomaly": 43.9064,
        "meta_ephemeris_type": 0,
        "meta_classification_type": "U",
        "meta_norad_cat_id": 37046,
        "meta_element_set_no": 999,
        "meta_rev_at_epoch": 64139,
        "meta_bstar": 0.0012562641,
        "meta_mean_motion_dot": 2.925e-05,
        "meta_mean_motion_ddot": 0,
        "tle_line1": "1 37046U 99025EEE 25343.77735308  .00002925  00000+0  12563-2 0  9998",
        "tle_line2": "2 37046  98.5439 358.1114 0049200 315.8191  43.9064 14.24826454641395"
      },
      "geometry": {
        "type": "Point",
        "coordinates": [
          -7.018170807048202,
          43.53971144071809
        ]
      }
    },
    {
      "type": "Feature",
      "properties": {
        "norad_id": 37048,
        "name": "FENGYUN 1C DEB",
        "group": "fengyun-1c-debris",
        "lat": -26.747185027335163,
        "lon": 23.716641337545443,
        "alt_km": 920.2915209912835,
        "timestamp": "2025-12-12T22:42:12.834703+00:00",
        "meta_object_name": "FENGYUN 1C DEB",
        "meta_object_id": "1999-025EEG",
        "meta_epoch": "2025-12-08T21:18:37.158048",
        "meta_mean_motion": 13.6513296,
        "meta_eccentricity": 0.025318,
        "meta_inclination": 98.885,
        "meta_ra_of_asc_node": 204.5179,
        "meta_arg_of_pericenter": 159.5311,
        "meta_mean_anomaly": 272.4204,
        "meta_ephemeris_type": 0,
        "meta_classification_type": "U",
        "meta_norad_cat_id": 37048,
        "meta_element_set_no": 999,
        "meta_rev_at_epoch": 62117,
        "meta_bstar": 0.00022488,
        "meta_mean_motion_dot": 1.89e-06,
        "meta_mean_motion_ddot": 0,
        "tle_line1": "1 37048U 99025EEG 25342.88793007  .00000189  00000+0  22488-3 0  9999",
        "tle_line2": "2 37048  98.8850 204.5179 0253180 159.5311 272.4204 13.65132960621178"
      },
      "geometry": {
        "type": "Point",
        "coordinates": [
          23.716641337545443,
          -26.747185027335163
        ]
      }
    }
  ]
}